NORAD_CAT_ID,OBJECT_NAME,OBJECT_TYPE,EPOCH,MEAN_MOTION,ECCENTRICITY,INCLINATION,RA_OF_ASC_NODE,ARG_OF_PERICENTER,MEAN_ANOMALY,BSTAR,MEAN_MOTION_DOT,MEAN_MOTION_DDOT,TLE_LINE0,TLE_LINE1,TLE_LINE2,SEMIMAJOR_AXIS,PERIOD,APOGEE,PERIGEE,DECAYED
50835.0,STARLINK-3310,PAYLOAD,2022-07-01 12:05:34,15.08831105,0.0002891,53.2174,106.8647,61.9897,298.1387,8.6532e-06,-1.51e-06,0.0,0 STARLINK-3310,1 50835U 22001AJ  22182.50386875 -.00000151  00000-0  86532-5 0  9990,2 50835  53.2174 106.8647 0002891  61.9897 298.1387 15.08831105 26881,6917.908,95.438,541.773,537.773,0.0
50835.0,STARLINK-3310,PAYLOAD,2022-07-02 11:56:20,15.08844714,0.0002888,53.2175,102.4044,64.3757,295.7534,4.9684e-05,5.02e-06,0.0,0 STARLINK-3310,1 50835U 22001AJ  22183.49746029  .00000502  00000-0  49684-4 0  9995,2 50835  53.2175 102.4044 0002888  64.3757 295.7534 15.08844714 27038,6917.866,95.437,541.729,537.7330000000002,0.0
50835.0,STARLINK-3310,PAYLOAD,2022-07-03 03:50:11,15.08851689,0.0002934,53.2176,99.431,65.5481,294.5817,0.00018123,2.598e-05,0.0,0 STARLINK-3310,1 50835U 22001AJ  22184.15984980  .00002598  00000-0  18123-3 0  9999,2 50835  53.2176  99.4310 0002934  65.5481 294.5817 15.08851689 28399,6917.845,95.437,541.739,537.68,0.0
50835.0,STARLINK-3310,PAYLOAD,2022-07-03 11:47:06,15.08854624,0.0002918999999999,53.2177,97.944,66.3734,293.7565,0.00024455,3.607e-05,0.0,0 STARLINK-3310,1 50835U 22001AJ  22184.49104544  .00003607  00000-0  24455-3 0  9993,2 50835  53.2177  97.9440 0002919  66.3734 293.7565 15.08854624 27189,6917.8359999999975,95.437,541.72,537.681,0.0
50835.0,STARLINK-3310,PAYLOAD,2022-07-03 21:19:25,15.08845682,0.0002976,53.218,96.1603,68.2162,291.9147,0.00012003,1.623e-05,0.0,0 STARLINK-3310,1 50835U 22001AJ  22184.88849312  .00001623  00000-0  12003-3 0  9997,2 50835  53.2180  96.1603 0002976  68.2162 291.9147 15.08845682 27241,6917.863,95.437,541.7869999999998,537.669,0.0
50835.0,STARLINK-3310,PAYLOAD,2022-07-04 03:40:58,15.08835073,0.0002795,53.2168,94.9707,65.9049,294.2235,-8.1782e-05,-1.59e-05,0.0,0 STARLINK-3310,1 50835U 22001AJ  22185.15345878 -.00001590  00000-0 -81782-4 0  9992,2 50835  53.2168  94.9707 0002795  65.9049 294.2235 15.08835073 28546,6917.895,95.438,541.694,537.827,0.0
50835.0,STARLINK-3310,PAYLOAD,2022-07-04 11:37:55,15.08820251,0.0002853999999999,53.2167,93.4837,66.559,293.5701,-0.00027277,-4.625e-05,0.0,0 STARLINK-3310,1 50835U 22001AJ  22185.48466902 -.00004625  00000-0 -27277-3 0  9990,2 50835  53.2167  93.4837 0002854  66.5590 293.5701 15.08820251 28594,6917.941,95.439,541.78,537.831,0.0
50835.0,STARLINK-3310,PAYLOAD,2022-07-04 22:45:37,15.08824387,0.0002831,53.2165,91.4019,66.8183,293.3107,-0.00020975,-3.624e-05,0.0,0 STARLINK-3310,1 50835U 22001AJ  22185.94835095 -.00003624  00000-0 -20975-3 0  9990,2 50835  53.2165  91.4019 0002831  66.8183 293.3107 15.08824387 27409,6917.928000000001,95.439,541.752,537.835,0.0
50835.0,STARLINK-3310,PAYLOAD,2022-07-05 05:07:10,15.08826586,0.0002803,53.2165,90.2122,67.7713,292.3577,-0.00016021,-2.837e-05,0.0,0 STARLINK-3310,1 50835U 22001AJ  22186.21331243 -.00002837  00000-0 -16021-3 0  9999,2 50835  53.2165  90.2122 0002803  67.7713 292.3577 15.08826586 27446,6917.920999999999,95.438,541.725,537.847,0.0
50835.0,STARLINK-3310,PAYLOAD,2022-07-05 21:01:02,15.08827874,0.0002776,53.2164,87.2386,69.6518,290.4772,5.7157e-05,6.21e-06,0.0,0 STARLINK-3310,1 50835U 22001AJ  22186.87571904  .00000621  00000-0  57157-4 0  9994,2 50835  53.2164  87.2386 0002776  69.6518 290.4772 15.08827874 27544,6917.917,95.438,541.703,537.862,0.0
50835.0,STARLINK-3310,PAYLOAD,2022-07-06 03:22:39,15.08743249,0.000348,53.2165,86.0496,64.9465,295.1888,0.0028033,0.00044493,0.0,0 STARLINK-3310,1 50835U 22001AJ  22187.14073498  .00044493  00000-0  28033-2 0  9994,2 50835  53.2165  86.0496 0003480  64.9465 295.1888 15.08743249 28843,6918.176,95.444,542.4490000000002,537.634,0.0
50835.0,STARLINK-3310,PAYLOAD,2022-07-06 09:44:07,15.08830842,0.0002744,53.2166,84.8598,68.5652,291.5632,0.00028704,4.282e-05,0.0,0 STARLINK-3310,1 50835U 22001AJ  22187.40564402  .00004282  00000-0  28704-3 0  9991,2 50835  53.2166  84.8598 0002744  68.5652 291.5632 15.08830842 28880,6917.908,95.438,541.672,537.875,0.0
50835.0,STARLINK-3310,PAYLOAD,2022-07-06 17:41:03,15.08833596,0.0002727,53.2168,83.3733,69.6106,290.5179,0.00038272,5.807e-05,0.0,0 STARLINK-3310,1 50835U 22001AJ  22187.73684682  .00005807  00000-0  38272-3 0  9995,2 50835  53.2168  83.3733 0002727  69.6106 290.5179 15.08833596 27674,6917.9,95.438,541.651,537.878,0.0
50835.0,STARLINK-3310,PAYLOAD,2022-07-07 04:48:45,15.08846903,0.0002742,53.2167,81.2918,70.693,289.4359,0.0004365,6.667e-05,0.0,0 STARLINK-3310,1 50835U 22001AJ  22188.20052372  .00006667  00000-0  43650-3 0  9994,2 50835  53.2167  81.2918 0002742  70.6930 289.4359 15.08846903 27740,6917.859,95.437,541.621,537.827,0.0
50835.0,STARLINK-3310,PAYLOAD,2022-07-07 20:42:35,15.08863184,0.0002723999999999,53.2167,78.3182,72.3006,287.8284,0.00063231,9.796e-05,0.0,0 STARLINK-3310,1 50835U 22001AJ  22188.86291634  .00009796  00000-0  63231-3 0  9995,2 50835  53.2167  78.3182 0002724  72.3006 287.8284 15.08863184 29104,6917.81,95.436,541.559,537.79,0.0
50835.0,STARLINK-3310,PAYLOAD,2022-07-08 09:25:40,15.08866052,0.0002737,53.2167,75.9391,73.7351,286.3943,0.00033987,5.129e-05,0.0,0 STARLINK-3310,1 50835U 22001AJ  22189.39282712  .00005129  00000-0  33987-3 0  9992,2 50835  53.2167  75.9391 0002737  73.7351 286.3943 15.08866052 27922,6917.801,95.436,541.559,537.7719999999998,0.0
50835.0,STARLINK-3310,PAYLOAD,2022-07-08 20:33:21,15.08870188,0.000276,53.2169,73.8578,75.0157,285.1140000000001,0.00028771,4.297e-05,0.0,0 STARLINK-3310,1 50835U 22001AJ  22189.85649761  .00004297  00000-0  28771-3 0  9994,2 50835  53.2169  73.8578 0002760  75.0157 285.1140 15.08870188 29252,6917.788000000001,95.436,541.562,537.744,0.0
50835.0,STARLINK-3310,PAYLOAD,2022-07-09 09:16:25,15.08868261,0.0002812,53.2171,71.47800000000002,74.5221,285.6082,0.00011834,1.597e-05,0.0,0 STARLINK-3310,1 50835U 22001AJ  22190.38640774  .00001597  00000-0  11834-3 0  9991,2 50835  53.2171  71.4780 0002812  74.5221 285.6082 15.08868261 28076,6917.794,95.436,541.604,537.714,0.0
50835.0,STARLINK-3310,PAYLOAD,2022-07-10 04:21:05,15.08803521,0.0002235,53.2173,67.9102,73.9292,286.1946,-0.0008676,-0.00014056,0.0,0 STARLINK-3310,1 50835U 22001AJ  22191.18131311 -.00014056  00000-0 -86760-3 0  9998,2 50835  53.2173  67.9102 0002235  73.9292 286.1946 15.08803521 29452,6917.9919999999975,95.44,541.403,538.311,0.0
50835.0,STARLINK-3310,PAYLOAD,2022-07-10 20:14:56,15.08831766,0.000262,53.2172,64.9367,85.6283,274.5008,8.9769e-05,1.14e-05,0.0,0 STARLINK-3310,1 50835U 22001AJ  22191.84371527  .00001140  00000-0  89769-4 0  9997,2 50835  53.2172  64.9367 0002620  85.6283 274.5008 15.08831766 29552,6917.906,95.438,541.5830000000002,537.9580000000002,0.0
50835.0,STARLINK-3310,PAYLOAD,2022-07-11 08:58:02,15.08840937,0.000224,53.2175,62.5581,72.9631,287.1607,0.00016499,2.339e-05,0.0,0 STARLINK-3310,1 50835U 22001AJ  22192.37363592  .00002339  00000-0  16499-3 0  9999,2 50835  53.2175  62.5581 0002240  72.9631 287.1607 15.08840937 28375,6917.878000000002,95.437,541.2919999999998,538.193,0.0
50835.0,STARLINK-3310,PAYLOAD,2022-07-11 21:41:07,15.08844177,0.0001999,53.2174,60.1794,71.4998,288.6211,0.0008761,0.00013684,0.0,0 STARLINK-3310,1 50835U 22001AJ  22192.90356407  .00013684  00000-0  87610-3 0  9993,2 50835  53.2174  60.1794 0001999  71.4998 288.6211 15.08844177 28450,6917.868,95.437,541.116,538.35,0.0
50835.0,STARLINK-3310,PAYLOAD,2022-07-12 02:27:16,15.08864379,0.0001984,53.2173,59.2874,72.2627,287.8582,0.0011123,0.0001747,0.0,0 STARLINK-3310,1 50835U 22001AJ  22193.10227911  .00017470  00000-0  11123-2 0  9995,2 50835  53.2173  59.2874 0001984  72.2627 287.8582 15.08864379 29740,6917.806,95.436,541.043,538.298,0.0
50835.0,STARLINK-3310,PAYLOAD,2022-07-12 19:56:30,15.08870656,0.0001892,53.2182,56.0167,71.6162,288.5036,0.00069491,0.00010798,0.0,0 STARLINK-3310,1 50835U 22001AJ  22193.83090753  .00010798  00000-0  69491-3 0  9995,2 50835  53.2182  56.0167 0001892  71.6162 288.5036 15.08870656 29854,6917.7869999999975,95.436,540.961,538.3430000000002,0.0
50835.0,STARLINK-3310,PAYLOAD,2022-07-13 00:42:39,15.08858565,0.0001861,53.2174,55.1247,62.2885,297.8295,0.00017387,2.481e-05,0.0,0 STARLINK-3310,1 50835U 22001AJ  22194.02962804  .00002481  00000-0  17387-3 0  9999,2 50835  53.2174  55.1247 0001861  62.2885 297.8295 15.08858565 29886,6917.824000000001,95.436,540.976,538.401,0.0
50835.0,STARLINK-3310,PAYLOAD,2022-07-13 19:47:17,15.08847236,0.0002068,53.2179,51.5563,69.9533,290.1682,-7.4929e-05,-1.481e-05,0.0,0 STARLINK-3310,1 50835U 22001AJ  22194.82450692 -.00001481  00000-0 -74929-4 0  9991,2 50835  53.2179  51.5563 0002068  69.9533 290.1682 15.08847236 30001,6917.858,95.437,541.154,538.293,0.0
50835.0,STARLINK-3310,PAYLOAD,2022-07-14 06:55:00,15.08839558,0.0001634,53.2181,49.474,71.5652,288.5518,-0.00012281,-2.242e-05,0.0,0 STARLINK-3310,1 50835U 22001AJ  22195.28819645 -.00002242  00000-0 -12281-3 0  9997,2 50835  53.2181  49.4740 0001634  71.5652 288.5518 15.08839558 30070,6917.882,95.438,540.877,538.616,0.0
50835.0,STARLINK-3310,PAYLOAD,2022-07-14 21:13:28,15.08829808,0.0001705,53.2185,46.7983,70.4601,289.6575,-0.00013882,-2.496e-05,0.0,0 STARLINK-3310,1 50835U 22001AJ  22195.88436317 -.00002496  00000-0 -13882-3 0  9993,2 50835  53.2185  46.7983 0001705  70.4601 289.6575 15.08829808 28905,6917.9119999999975,95.438,540.956,538.597,0.0
50835.0,STARLINK-3310,PAYLOAD,2022-07-15 06:45:47,15.08830063,0.0001766,53.2186,45.0135,66.5419,293.5759,-3.6944e-05,-8.76e-06,0.0,0 STARLINK-3310,1 50835U 22001AJ  22196.28180299 -.00000876  00000-0 -36944-4 0  9998,2 50835  53.2186  45.0135 0001766  66.5419 293.5759 15.08830063 30228,6917.911,95.438,540.997,538.554,0.0
